[{"OBJECT_NAME":"ONEWEB-0429","OBJECT_ID":"2021-132AH","EPOCH":"2026-03-09T17:06:28.930176","MEAN_MOTION":13.18686546,"ECCENTRICITY":0.00018486,"INCLINATION":87.9248,"RA_OF_ASC_NODE":355.2198,"ARG_OF_PERICENTER":82.9914,"MEAN_ANOMALY":277.1428,"EPHEMERIS_TYPE":0,"CLASSIFICATION_TYPE":"U","NORAD_CAT_ID":50500,"ELEMENT_SET_NO":999,"REV_AT_EPOCH":20847,"BSTAR":-6.1219241e-5,"MEAN_MOTION_DOT":-1.1e-7,"MEAN_MOTION_DDOT":0},{"OBJECT_NAME":"THORAD AGENA D DEB","OBJECT_ID":"1970-025RC","EPOCH":"2026-03-08T07:44:14.551296","MEAN_MOTION":13.3362803,"ECCENTRICITY":0.01713977,"INCLINATION":100.5234,"RA_OF_ASC_NODE":108.2794,"ARG_OF_PERICENTER":167.6015,"MEAN_ANOMALY":192.9404,"EPHEMERIS_TYPE":0,"CLASSIFICATION_TYPE":"U","NORAD_CAT_ID":42498,"ELEMENT_SET_NO":999,"REV_AT_EPOCH":57744,"BSTAR":0.0024572512,"MEAN_MOTION_DOT":1.271e-5,"MEAN_MOTION_DDOT":0}]
